HERMES-2                
1 63243U 25052AK  26068.92847372  .00009456  00000+0  34839-3 0  9999
2 63243  97.4004 324.4926 0006340  99.4160 260.7796 15.28021069 54859
STARLINK-36542          
1 67445U 26008A   26068.39299931  .00031588  00000+0  11507-2 0  9999
2 67445  42.9989 207.1817 0001334 182.2029 177.8817 15.27630907  9525
