[{"OBJECT_NAME":"HERMES-2","OBJECT_ID":"2025-052AK","EPOCH":"2026-03-09T22:17:00.130272","MEAN_MOTION":15.28021069,"ECCENTRICITY":0.00063399,"INCLINATION":97.4004,"RA_OF_ASC_NODE":324.4926,"ARG_OF_PERICENTER":99.416,"MEAN_ANOMALY":260.7796,"EPHEMERIS_TYPE":0,"CLASSIFICATION_TYPE":"U","NORAD_CAT_ID":63243,"ELEMENT_SET_NO":999,"REV_AT_EPOCH":5485,"BSTAR":0.00034839454,"MEAN_MOTION_DOT":9.456e-5,"MEAN_MOTION_DDOT":0},{"OBJECT_NAME":"STARLINK-36542","OBJECT_ID":"2026-008A","EPOCH":"2026-03-09T09:25:55.140384","MEAN_MOTION":15.27630907,"ECCENTRICITY":0.00013345,"INCLINATION":42.9989,"RA_OF_ASC_NODE":207.1817,"ARG_OF_PERICENTER":182.2029,"MEAN_ANOMALY":177.8817,"EPHEMERIS_TYPE":0,"CLASSIFICATION_TYPE":"U","NORAD_CAT_ID":67445,"ELEMENT_SET_NO":999,"REV_AT_EPOCH":952,"BSTAR":0.0011507085,"MEAN_MOTION_DOT":0.00031588,"MEAN_MOTION_DDOT":0}]
